ALOS (DAICHI)           
1 28931U 06002A   25337.84336742  .00002657  00000+0  45700-3 0  9996
2 28931  98.1077 289.3943 0000741 104.5089 255.6199 14.69444604 59401
H-2A R/B                
1 28932U 06002B   25337.93160091  .00019870  00000+0  10485-2 0  9995
2 28932  98.2312 111.9627 0054540 206.3813 153.4638 15.14281552 79931
RESURS-DK 1             
1 29228U 06021A   25337.83382806  .00005630  00000+0  33226-3 0  9992
2 29228  69.9329 124.8507 0007823 265.1506  94.8767 15.12079711 73033
CZ-4B R/B               
1 29507U 06046C   25337.79125284  .00008258  00000+0  43099-3 0  9997
2 29507  97.5746  17.9546 0032800 238.5211 121.2815 15.15725273 45513
CZ-2C R/B               
1 31114U 07010B   25337.91211058  .00000350  00000+0  18025-3 0  9991
2 31114  98.3974  91.0073 0058508 211.7855 147.9787 14.20204195966122
COSMO-SKYMED 1          
1 31598U 07023A   25338.15821815  .00007433  00000+0  67324-3 0  9991
2 31598  97.8839 163.5018 0001374  80.4224 279.7152 14.95667852   625
COSMOS 2428             
1 31792U 07029A   25338.17182078  .00000070  00000+0  63317-4 0  9995
2 31792  70.9372  43.8689 0003185  36.3150 323.8187 14.12887298950607
SL-16 R/B               
1 31793U 07029B   25338.11813472 -.00000156  00000+0 -55869-4 0  9999
2 31793  70.9768  13.2816 0002420 265.5403 160.5096 14.14816214951853
KORONAS-FOTON           
1 33504U 09003A   25338.11829420  .00021848  00000+0  52869-3 0  9990
2 33504  82.4319  15.0380 0012730 135.9595 224.2667 15.40900716931017
CZ-2C R/B               
1 37731U 11030B   25337.87661097  .00002813  00000+0  36318-3 0  9997
2 37731  97.8396 292.1802 0051706 303.2715 113.8213 14.80851682775910
H-2A R/B                
1 38341U 12025E   25337.93528919  .00006374  00000+0  58747-3 0  9998
2 38341  98.4580 292.4875 0043948 266.0773  93.5420 14.94352695733915
SHIJIAN-16 (SJ-16)      
1 39358U 13057A   25337.95210262  .00001807  00000+0  18080-3 0  9996
2 39358  74.9736   6.2813 0017375 340.5382  19.5140 14.91950337657228
