CCSDS_OMM_VERS = 2.0
CREATION_DATE  = 
ORIGINATOR     = 

OBJECT_NAME    = ALOS (DAICHI)
OBJECT_ID      = 2006-002A
CENTER_NAME    = EARTH
REF_FRAME      = TEME
TIME_SYSTEM    = UTC
MEAN_ELEMENT_THEORY = SGP/SGP4

EPOCH          = 2025-12-03T20:14:26.945088
MEAN_MOTION    = 14.69444604
ECCENTRICITY   = .0000741
INCLINATION    = 98.1077
RA_OF_ASC_NODE = 289.3943
ARG_OF_PERICENTER = 104.5089
MEAN_ANOMALY   = 255.6199

EPHEMERIS_TYPE = 0
CLASSIFICATION_TYPE = U
NORAD_CAT_ID   = 28931
ELEMENT_SET_NO = 999
REV_AT_EPOCH   = 5940
BSTAR          = .45700484E-3
MEAN_MOTION_DOT = .2657E-4
MEAN_MOTION_DDOT = 0

CCSDS_OMM_VERS = 2.0
CREATION_DATE  = 
ORIGINATOR     = 

OBJECT_NAME    = H-2A R/B
OBJECT_ID      = 2006-002B
CENTER_NAME    = EARTH
REF_FRAME      = TEME
TIME_SYSTEM    = UTC
MEAN_ELEMENT_THEORY = SGP/SGP4

EPOCH          = 2025-12-03T22:21:30.318624
MEAN_MOTION    = 15.14281552
ECCENTRICITY   = .00545406
INCLINATION    = 98.2312
RA_OF_ASC_NODE = 111.9627
ARG_OF_PERICENTER = 206.3813
MEAN_ANOMALY   = 153.4638

EPHEMERIS_TYPE = 0
CLASSIFICATION_TYPE = U
NORAD_CAT_ID   = 28932
ELEMENT_SET_NO = 999
REV_AT_EPOCH   = 7993
BSTAR          = .1048531E-2
MEAN_MOTION_DOT = .1987E-3
MEAN_MOTION_DDOT = 0

CCSDS_OMM_VERS = 2.0
CREATION_DATE  = 
ORIGINATOR     = 

OBJECT_NAME    = RESURS-DK 1
OBJECT_ID      = 2006-021A
CENTER_NAME    = EARTH
REF_FRAME      = TEME
TIME_SYSTEM    = UTC
MEAN_ELEMENT_THEORY = SGP/SGP4

EPOCH          = 2025-12-03T20:00:42.744384
MEAN_MOTION    = 15.12079711
ECCENTRICITY   = .00078238
INCLINATION    = 69.9329
RA_OF_ASC_NODE = 124.8507
ARG_OF_PERICENTER = 265.1506
MEAN_ANOMALY   = 94.8767

EPHEMERIS_TYPE = 0
CLASSIFICATION_TYPE = U
NORAD_CAT_ID   = 29228
ELEMENT_SET_NO = 999
REV_AT_EPOCH   = 7303
BSTAR          = .33225758E-3
MEAN_MOTION_DOT = .563E-4
MEAN_MOTION_DDOT = 0

CCSDS_OMM_VERS = 2.0
CREATION_DATE  = 
ORIGINATOR     = 

OBJECT_NAME    = CZ-4B R/B
OBJECT_ID      = 2006-046C
CENTER_NAME    = EARTH
REF_FRAME      = TEME
TIME_SYSTEM    = UTC
MEAN_ELEMENT_THEORY = SGP/SGP4

EPOCH          = 2025-12-03T18:59:24.245376
MEAN_MOTION    = 15.15725273
ECCENTRICITY   = .00328003
INCLINATION    = 97.5746
RA_OF_ASC_NODE = 17.9546
ARG_OF_PERICENTER = 238.5211
MEAN_ANOMALY   = 121.2815

EPHEMERIS_TYPE = 0
CLASSIFICATION_TYPE = U
NORAD_CAT_ID   = 29507
ELEMENT_SET_NO = 999
REV_AT_EPOCH   = 4551
BSTAR          = .43098567E-3
MEAN_MOTION_DOT = .8258E-4
MEAN_MOTION_DDOT = 0

CCSDS_OMM_VERS = 2.0
CREATION_DATE  = 
ORIGINATOR     = 

OBJECT_NAME    = CZ-2C R/B
OBJECT_ID      = 2007-010B
CENTER_NAME    = EARTH
REF_FRAME      = TEME
TIME_SYSTEM    = UTC
MEAN_ELEMENT_THEORY = SGP/SGP4

EPOCH          = 2025-12-03T21:53:26.354112
MEAN_MOTION    = 14.20204195
ECCENTRICITY   = .0058508
INCLINATION    = 98.3974
RA_OF_ASC_NODE = 91.0073
ARG_OF_PERICENTER = 211.7855
MEAN_ANOMALY   = 147.9787

EPHEMERIS_TYPE = 0
CLASSIFICATION_TYPE = U
NORAD_CAT_ID   = 31114
ELEMENT_SET_NO = 999
REV_AT_EPOCH   = 96612
BSTAR          = .18025E-3
MEAN_MOTION_DOT = .35E-5
MEAN_MOTION_DDOT = 0

CCSDS_OMM_VERS = 2.0
CREATION_DATE  = 
ORIGINATOR     = 

OBJECT_NAME    = COSMO-SKYMED 1
OBJECT_ID      = 2007-023A
CENTER_NAME    = EARTH
REF_FRAME      = TEME
TIME_SYSTEM    = UTC
MEAN_ELEMENT_THEORY = SGP/SGP4

EPOCH          = 2025-12-04T03:47:50.048160
MEAN_MOTION    = 14.95667852
ECCENTRICITY   = .0001374
INCLINATION    = 97.8839
RA_OF_ASC_NODE = 163.5018
ARG_OF_PERICENTER = 80.4224
MEAN_ANOMALY   = 279.7152

EPHEMERIS_TYPE = 0
CLASSIFICATION_TYPE = U
NORAD_CAT_ID   = 31598
ELEMENT_SET_NO = 999
REV_AT_EPOCH   = 62
BSTAR          = .67324E-3
MEAN_MOTION_DOT = .7433E-4
MEAN_MOTION_DDOT = 0

CCSDS_OMM_VERS = 2.0
CREATION_DATE  = 
ORIGINATOR     = 

OBJECT_NAME    = COSMOS 2428
OBJECT_ID      = 2007-029A
CENTER_NAME    = EARTH
REF_FRAME      = TEME
TIME_SYSTEM    = UTC
MEAN_ELEMENT_THEORY = SGP/SGP4

EPOCH          = 2025-12-04T04:07:25.315392
MEAN_MOTION    = 14.12887298
ECCENTRICITY   = .0003185
INCLINATION    = 70.9372
RA_OF_ASC_NODE = 43.8689
ARG_OF_PERICENTER = 36.3150
MEAN_ANOMALY   = 323.8187

EPHEMERIS_TYPE = 0
CLASSIFICATION_TYPE = U
NORAD_CAT_ID   = 31792
ELEMENT_SET_NO = 999
REV_AT_EPOCH   = 95060
BSTAR          = .63317E-4
MEAN_MOTION_DOT = .7E-6
MEAN_MOTION_DDOT = 0

CCSDS_OMM_VERS = 2.0
CREATION_DATE  = 
ORIGINATOR     = 

OBJECT_NAME    = SL-16 R/B
OBJECT_ID      = 2007-029B
CENTER_NAME    = EARTH
REF_FRAME      = TEME
TIME_SYSTEM    = UTC
MEAN_ELEMENT_THEORY = SGP/SGP4

EPOCH          = 2025-12-04T02:50:06.839808
MEAN_MOTION    = 14.14816214
ECCENTRICITY   = .000242
INCLINATION    = 70.9768
RA_OF_ASC_NODE = 13.2816
ARG_OF_PERICENTER = 265.5403
MEAN_ANOMALY   = 160.5096

EPHEMERIS_TYPE = 0
CLASSIFICATION_TYPE = U
NORAD_CAT_ID   = 31793
ELEMENT_SET_NO = 999
REV_AT_EPOCH   = 95185
BSTAR          = -.55869E-4
MEAN_MOTION_DOT = -.156E-5
MEAN_MOTION_DDOT = 0

CCSDS_OMM_VERS = 2.0
CREATION_DATE  = 
ORIGINATOR     = 

OBJECT_NAME    = KORONAS-FOTON
OBJECT_ID      = 2009-003A
CENTER_NAME    = EARTH
REF_FRAME      = TEME
TIME_SYSTEM    = UTC
MEAN_ELEMENT_THEORY = SGP/SGP4

EPOCH          = 2025-12-04T02:50:20.618880
MEAN_MOTION    = 15.40900716
ECCENTRICITY   = .001273
INCLINATION    = 82.4319
RA_OF_ASC_NODE = 15.0380
ARG_OF_PERICENTER = 135.9595
MEAN_ANOMALY   = 224.2667

EPHEMERIS_TYPE = 0
CLASSIFICATION_TYPE = U
NORAD_CAT_ID   = 33504
ELEMENT_SET_NO = 999
REV_AT_EPOCH   = 93101
BSTAR          = .52869E-3
MEAN_MOTION_DOT = .21848E-3
MEAN_MOTION_DDOT = 0

CCSDS_OMM_VERS = 2.0
CREATION_DATE  = 
ORIGINATOR     = 

OBJECT_NAME    = CZ-2C R/B
OBJECT_ID      = 2011-030B
CENTER_NAME    = EARTH
REF_FRAME      = TEME
TIME_SYSTEM    = UTC
MEAN_ELEMENT_THEORY = SGP/SGP4

EPOCH          = 2025-12-03T21:02:19.187808
MEAN_MOTION    = 14.80851682
ECCENTRICITY   = .00517065
INCLINATION    = 97.8396
RA_OF_ASC_NODE = 292.1802
ARG_OF_PERICENTER = 303.2715
MEAN_ANOMALY   = 113.8213

EPHEMERIS_TYPE = 0
CLASSIFICATION_TYPE = U
NORAD_CAT_ID   = 37731
ELEMENT_SET_NO = 999
REV_AT_EPOCH   = 77591
BSTAR          = .36318311E-3
MEAN_MOTION_DOT = .2813E-4
MEAN_MOTION_DDOT = 0

CCSDS_OMM_VERS = 2.0
CREATION_DATE  = 
ORIGINATOR     = 

OBJECT_NAME    = H-2A R/B
OBJECT_ID      = 2012-025E
CENTER_NAME    = EARTH
REF_FRAME      = TEME
TIME_SYSTEM    = UTC
MEAN_ELEMENT_THEORY = SGP/SGP4

EPOCH          = 2025-12-03T22:26:48.986016
MEAN_MOTION    = 14.94352695
ECCENTRICITY   = .0043948
INCLINATION    = 98.4580
RA_OF_ASC_NODE = 292.4875
ARG_OF_PERICENTER = 266.0773
MEAN_ANOMALY   = 93.5420

EPHEMERIS_TYPE = 0
CLASSIFICATION_TYPE = U
NORAD_CAT_ID   = 38341
ELEMENT_SET_NO = 999
REV_AT_EPOCH   = 73391
BSTAR          = .58747E-3
MEAN_MOTION_DOT = .6374E-4
MEAN_MOTION_DDOT = 0

CCSDS_OMM_VERS = 2.0
CREATION_DATE  = 
ORIGINATOR     = 

OBJECT_NAME    = SHIJIAN-16 (SJ-16)
OBJECT_ID      = 2013-057A
CENTER_NAME    = EARTH
REF_FRAME      = TEME
TIME_SYSTEM    = UTC
MEAN_ELEMENT_THEORY = SGP/SGP4

EPOCH          = 2025-12-03T22:51:01.666368
MEAN_MOTION    = 14.91950337
ECCENTRICITY   = .00173753
INCLINATION    = 74.9736
RA_OF_ASC_NODE = 6.2813
ARG_OF_PERICENTER = 340.5382
MEAN_ANOMALY   = 19.5140

EPHEMERIS_TYPE = 0
CLASSIFICATION_TYPE = U
NORAD_CAT_ID   = 39358
ELEMENT_SET_NO = 999
REV_AT_EPOCH   = 65722
BSTAR          = .18080332E-3
MEAN_MOTION_DOT = .1807E-4
MEAN_MOTION_DDOT = 0

